STARLINK-4152           
1 53136U 22083E   26076.89211521 -.00000349  00000+0 -38557-5 0  9993
2 53136  53.2162 137.2985 0000949  86.3081 273.8019 15.08848272203440
STARLINK-4145           
1 53137U 22083F   26076.88475727  .00000375  00000+0  41680-4 0  9990
2 53137  53.2163 137.3321 0001271  91.8391 268.2747 15.08837453202456
STARLINK-4141           
1 53138U 22083G   26076.88339731  .00001316  00000+0  10076-3 0  9995
2 53138  53.2168 132.5189 0001162  85.0915 275.0209 15.08841106203299
STARLINK-4185           
1 53139U 22083H   26076.87371266  .00003718  00000+0  25155-3 0  9996
2 53139  53.2165 137.3821 0001184  73.8328 286.2794 15.08843620202453
STARLINK-4170           
1 53140U 22083J   26076.87739626  .00001542  00000+0  11493-3 0  9999
2 53140  53.2165 137.3652 0001147  88.9831 271.1293 15.08840602202456
STARLINK-4103           
1 53141U 22083K   26076.85901437  .00002293  00000+0  16215-3 0  9990
2 53141  53.2164 137.4495 0001099  85.0699 275.0419 15.08830527202456
STARLINK-4101           
1 53142U 22083L   26076.86731128  .00000356  00000+0  40430-4 0  9995
2 53142  53.2165 137.3839 0001097  77.4535 282.6580 15.08834455202469
STARLINK-4102           
1 53143U 22083M   26076.85532460  .00001902  00000+0  13761-3 0  9997
2 53143  53.2164 137.4661 0001117  87.2877 272.8243 15.08830674202459
STARLINK-4100           
1 53144U 22083N   26076.86635882  .00000327  00000+0  38654-4 0  9990
2 53144  53.2168 137.4248 0001240  91.1508 268.9627 15.08834786202457
STARLINK-4106           
1 53145U 22083P   26076.58299465  .00000639  00000+0  58202-4 0  9990
2 53145  53.2166 138.6867 0000946  94.2671 265.8429 15.08838489202419
STARLINK-4094           
1 53147U 22083R   26076.57931276  .00000900  00000+0  74599-4 0  9992
2 53147  53.2162 138.7038 0001113  81.8090 278.3028 15.08842262203062
STARLINK-4021           
1 53149U 22083T   26076.87192824  .00001189  00000+0  92765-4 0  9990
2 53149  53.2169 127.5904 0001255  84.7336 275.3799 15.08844258202597
STARLINK-4038           
1 53150U 22083U   26076.94941591  .00460072  10593-3  75387-3 0  9995
2 53150  53.1988  77.7100 0010178  41.7547 318.4261 16.02588149203292
STARLINK-4040           
1 53151U 22083V   26076.41831115  .00000452  00000+0  46465-4 0  9994
2 53151  53.2162 129.4268 0001248  91.2085 268.9050 15.08839299202523
STARLINK-4045           
1 53152U 22083W   26077.00002315  .00083560  00000+0  48171-2 0  9998
2 53152  53.2177 126.7581 0001295  96.4212 175.3418 15.11666212  5807
STARLINK-4098           
1 53153U 22083X   26076.54711101  .00000618  00000+0  56891-4 0  9990
2 53153  53.2169 128.8485 0001181  81.3192 278.7934 15.08839991202542
STARLINK-4077           
1 53154U 22083Y   26076.55448866  .00001177  00000+0  92040-4 0  9994
2 53154  53.2166 128.8140 0001182  93.6094 266.5033 15.08828388202549
STARLINK-4088           
1 53155U 22083Z   26076.87097998  .00007219  00000+0  47122-3 0  9999
2 53155  53.2156 127.3923 0001106 109.7979 250.3132 15.08835289203235
STARLINK-4087           
1 53156U 22083AA  26076.85990316  .00001260  00000+0  97249-4 0  9990
2 53156  53.2162 127.3181 0001198  91.9850 268.1280 15.08840210202599
STARLINK-4054           
1 53158U 22083AC  26076.87463230  .00000657  00000+0  59335-4 0  9997
2 53158  53.2166 127.3748 0001328  81.5165 278.5978 15.08839749202597
STARLINK-4111           
1 53159U 22083AD  26076.85623724  .00000915  00000+0  75563-4 0  9990
2 53159  53.2160 127.4597 0001242  88.6870 271.4265 15.08837593202597
STARLINK-4096           
1 53160U 22083AE  26076.86727574  .00000940  00000+0  77112-4 0  9991
2 53160  53.2164 127.4093 0001217  97.2714 262.8417 15.08841057202592
STARLINK-4055           
1 53161U 22083AF  26076.84519862  .00000267  00000+0  34889-4 0  9995
2 53161  53.2171 127.5115 0001272  84.0810 276.0327 15.08834561202598
STARLINK-4114           
1 53162U 22083AG  26076.86087856  .00000595  00000+0  55458-4 0  9990
2 53162  53.2165 127.4502 0001230  84.2896 275.8236 15.08832038202594
STARLINK-4104           
1 53163U 22083AH  26076.85257659 -.00000822  00000+0 -33570-4 0  9996
2 53163  53.2162 127.6216 0001335  90.8705 269.2440 15.08845714202593
STARLINK-4116           
1 53164U 22083AJ  26076.84888483  .00000520  00000+0  50748-4 0  9990
2 53164  53.2170 127.4954 0001357  93.7577 266.3570 15.08832285202594
STARLINK-4090           
1 53165U 22083AK  26076.83415928  .00000275  00000+0  35339-4 0  9996
2 53165  53.2165 127.5597 0001315  82.7752 277.3389 15.08834852202592
STARLINK-4110           
1 53166U 22083AL  26076.43398030 -.00000052  00000+0  14813-4 0  9995
2 53166  53.2163 129.2557 0001227  87.8511 272.2622 15.08837044202531
STARLINK-3683           
1 53167U 22083AM  26076.78585045  .00002941  00000+0  20282-3 0  9992
2 53167  53.2178 112.7659 0001548  81.2814 278.8354 15.08837880202787
STARLINK-4105           
1 53168U 22083AN  26076.83783942  .00000612  00000+0  56550-4 0  9996
2 53168  53.2164 127.5438 0001353  91.2174 268.8974 15.08835037202594
STARLINK-4117           
1 53169U 22083AP  26076.83004992  .00000576  00000+0  54284-4 0  9999
2 53169  53.2166 112.8361 0001298  87.6574 272.4567 15.08836972202789
STARLINK-4095           
1 53170U 22083AQ  26076.53468546  .00000101  00000+0  24452-4 0  9995
2 53170  53.2163 123.8543 0001254  94.8146 265.2989 15.08839631202614
STARLINK-4052           
1 53171U 22083AR  26076.77433412 -.00000189  00000+0  62374-5 0  9999
2 53171  53.2163  97.5867 0001362  83.3576 276.7571 15.08831403202995
STARLINK-4299           
1 53172U 22083AS  26076.85852326  .00000564  00000+0  53500-4 0  9994
2 53172  53.2169 122.3600 0001263  82.2145 277.8990 15.08839838202654
STARLINK-4300           
1 53173U 22083AT  26076.48133690 -.00000357  00000+0 -43512-5 0  9995
2 53173  53.2170 104.1326 0001248  97.3392 262.7742 15.08833450202870
STARLINK-4205           
1 53174U 22083AU  26076.90042994 -.00001109  00000+0 -51619-4 0  9991
2 53174  53.2177 137.1953 0001414  89.3402 270.7752 15.08837443202458
STARLINK-4292           
1 53175U 22083AV  26076.90315389  .00000296  00000+0  36662-4 0  9998
2 53175  53.2159 137.2490 0001264  82.7996 277.3140 15.08838004202452
STARLINK-4294           
1 53176U 22083AW  26076.50982407  .00002178  00000+0  15480-3 0  9991
2 53176  53.2160 113.9254 0001274  92.0931 268.0207 15.08854714202747
STARLINK-4298           
1 53177U 22083AX  26076.80517089  .00000961  00000+0  78442-4 0  9991
2 53177  53.2165 102.6763 0001458  80.8920 279.2238 15.08841467202929
STARLINK-4280           
1 53178U 22083AY  26076.43304086  .00000420  00000+0  44485-4 0  9992
2 53178  53.2168 129.3610 0001273  85.8995 274.2143 15.08834047202513
STARLINK-4276           
1 53179U 22083AZ  26076.75682657  .00000630  00000+0  57652-4 0  9994
2 53179  53.2168  87.5042 0001352  86.1045 274.0102 15.08840934203130
STARLINK-4258           
1 53180U 22083BA  26076.71637961 -.00000230  00000+0  36190-5 0  9992
2 53180  53.2163  87.9573 0001255  90.4924 269.6212 15.08835317203126
STARLINK-4278           
1 53182U 22083BC  26076.80149299  .00000398  00000+0  43088-4 0  9993
2 53182  53.2167 102.6943 0001311  88.0036 272.1106 15.08840761202925
STARLINK-4268           
1 53183U 22083BD  26076.74352563  .00001368  00000+0  10398-3 0  9992
2 53183  53.2163  92.8770 0001544  79.9372 280.1794 15.08849504203051
STARLINK-4257           
1 53184U 22083BE  26076.75314404 -.00003125  00000+0 -17833-3 0  9992
2 53184  53.2172  87.5064 0001310  83.7990 276.3151 15.08843081203147
STARLINK-4391           
1 53189U 22084A   26076.93105446  .00001043  00000+0  76489-4 0  9990
2 53189  97.6022 139.2955 0000488 188.0472 172.0747 15.05661335201295
STARLINK-4332           
1 53190U 22084B   26076.87843556  .00002773  00000+0  19622-3 0  9992
2 53190  97.6016 139.2797 0000790 218.2705 141.8466 15.05664414201287
STARLINK-4369           
1 53191U 22084C   26076.90709339  .00000499  00000+0  43406-4 0  9998
2 53191  97.6025 138.2601 0002925  82.5526 277.6031 15.01263093200544
STARLINK-4375           
1 53192U 22084D   26076.90890348 -.00000328  00000+0 -18534-4 0  9997
2 53192  97.6035 139.3092 0000774 174.4580 185.6656 15.05642769201281
STARLINK-4351           
1 53193U 22084E   26076.91079676 -.00000658  00000+0 -46650-4 0  9998
2 53193  97.6031 138.2652 0002201  86.9200 273.2276 15.01265375201564
STARLINK-4382           
1 53194U 22084F   26076.92551320  .00001133  00000+0  82700-4 0  9994
2 53194  97.6031 139.2955 0000676 102.2770 257.8533 15.05648896200616
STARLINK-4404           
1 53195U 22084G   26077.00002315  .00644230  18630-3  13418-2 0  9991
2 53195  97.6113 163.9999 0000657  17.2358 189.0363 15.99100718  5952
STARLINK-4407           
1 53196U 22084H   26077.00002315  .00663285  20179-3  12927-2 0  9998
2 53196  97.6084 164.5347 0002384 315.8687  93.0151 16.00278127  6015
STARLINK-4403           
1 53197U 22084J   26076.89969004  .00000138  00000+0  15304-4 0  9995
2 53197  97.6001 138.2452 0003555  62.3895 297.7690 15.01260363200544
STARLINK-4385           
1 53198U 22084K   26077.00002315  .00043166  00000+0  30457-2 0  9995
2 53198  97.6020 138.3707 0002011  79.1014 131.0783 15.04804699  5775
STARLINK-4395           
1 53199U 22084L   26076.90060604  .00001675  00000+0  12028-3 0  9993
2 53199  97.6038 139.3027 0001204 128.4741 231.6593 15.05653612200613
STARLINK-4417           
1 53200U 22084M   26076.91997666  .00000422  00000+0  33442-4 0  9997
2 53200  97.6026 139.2858 0000789 134.2770 225.8522 15.05647836201279
STARLINK-4405           
1 53201U 22084N   26076.60431049  .00004092  00000+0  28759-3 0  9993
2 53201  97.6006 139.0707 0000588 120.3018 239.8267 15.05654459200579
STARLINK-4411           
1 53202U 22084P   26076.62369320 -.00000153  00000+0 -63983-5 0  9994
2 53202  97.6025 139.0554 0001457  92.9528 267.1866 15.05641012200577
